GALAXY 11 (G-11)        
1 26038U 99071A   25062.61086363  .00000074  00000+0  00000+0 0  9992
2 26038   5.5405  76.2469 0011127 299.7456  72.3353  0.99016403 92352
INTELSAT 9 (IS-9)       
1 26451U 00043A   25062.55576848 -.00000016  00000+0  00000+0 0  9994
2 26451   9.3519  53.4311 0002979 300.5536  73.9082  1.00272733 39425
INTELSAT 10 (IS-10)     
1 26766U 01019A   25062.62231472 -.00000011  00000+0  00000+0 0  9991
2 26766   7.9466  64.0491 0003432 275.7956 111.9129  1.00272436 40900
INTELSAT 901 (IS-901)   
1 26824U 01024A   25062.58781595 -.00000206  00000+0  00000+0 0  9999
2 26824   0.0369 114.8865 0002287 244.8012 346.0304  1.00271125 18261
INTELSAT 902 (IS-902)   
1 26900U 01039A   25062.38985882 -.00000285  00000+0  00000+0 0  9990
2 26900   4.9231  77.5255 0004452 268.5025 265.6122  1.00270971 85972
INTELSAT 904 (IS-904)   
1 27380U 02007A   25062.61483346 -.00000217  00000+0  00000+0 0  9998
2 27380   5.7369  74.8049 0003291 276.5877   2.0632  1.00271427 47043
DIRECTV 5 (TEMPO 1)     
1 27426U 02023A   25062.52075568 -.00000059  00000+0  00000+0 0  9994
2 27426   3.6696  81.2127 0003435 264.5260 253.1381  1.00271306 83402
INTELSAT 905 (IS-905)   
1 27438U 02027A   25062.43586416 -.00000275  00000+0  00000+0 0  9990
2 27438   5.5633  75.4404 0004887 263.6226 300.8331  0.99898368 83241
GALAXY 3C (G-3C)        
1 27445U 02030A   25062.52379650 -.00000155  00000+0  00000+0 0  9999
2 27445   2.5179  84.0942 0002809  54.7194 116.4024  1.00271003 41775
INTELSAT 906 (IS-906)   
1 27513U 02041A   25062.61086363  .00000010  00000+0  00000+0 0  9992
2 27513   4.6022  78.7256 0003482 238.6512 128.2908  1.00273271 82310
GALAXY 23 (G-23)        
1 27854U 03034A   25062.51867056  .00000009  00000+0  00000+0 0  9996
2 27854   1.9780  85.6200 0002804 262.9114 238.8172  1.00272825 83822
GALAXY 13 (HORIZONS-1)  
1 27954U 03044A   25062.46355780  .00000129  00000+0  00000+0 0  9991
2 27954   0.1986  93.3754 0002345 254.5242 190.4323  1.00271877 41855
INTELSAT 10-02          
1 28358U 04022A   25062.39958942 -.00000014  00000+0  00000+0 0  9992
2 28358   0.0349 269.0938 0000844  67.7597 327.4125  1.00271856 75835
XM-3 (RHYTHM)           
1 28626U 05008A   25062.38264774 -.00000202  00000+0  00000+0 0  9996
2 28626   0.0731 263.1369 0000202 143.7122 165.9207  1.00268085 37900
DIRECTV 8               
1 28659U 05019A   25062.49556218 -.00000002  00000+0  00000+0 0  9991
2 28659   0.0204 135.0023 0003093 212.3118 233.5303  1.00271988 72357
GALAXY 28 (G-28)        
1 28702U 05022A   25062.52492595 -.00000188  00000+0  00000+0 0  9990
2 28702   2.0827  84.8271 0005267 217.5729 319.0852  1.00271229 47264
GALAXY 16 (G-16)        
1 29236U 06023A   25062.51311958 -.00000130  00000+0  00000+0 0  9994
2 29236   0.0455 243.0842 0002700 110.5402 253.5992  1.00270794 68259
DIRECTV 9S              
1 29494U 06043A   25062.62004897 -.00000116  00000+0  00000+0 0  9999
2 29494   1.2023  86.7157 0003085 259.8799 297.0292  1.00270879 46664
GALAXY 17 (G-17)        
1 31307U 07016B   25062.52570787 -.00000209  00000+0  00000+0 0  9994
2 31307   1.7760  85.9734 0005402 202.7189 337.0809  1.00270421 65089
DIRECTV 10              
1 31862U 07032A   25062.51060583 -.00000106  00000+0  00000+0 0  9991
2 31862   0.0235 288.1359 0000554  75.3539 239.0325  1.00272339 40874
INTELSAT 11 (IS-11)     
1 32253U 07044B   25062.51738772 -.00000272  00000+0  00000+0 0  9995
2 32253   2.3359  84.5310 0003178 261.6304 318.6110  1.00270836 63771
HORIZONS-2              
1 32388U 07063B   25062.59673412 -.00000256  00000+0  00000+0 0  9994
2 32388   1.3838  86.5462 0002099 264.4227 311.6546  1.00270281 63092
DIRECTV 11              
1 32729U 08013A   25062.51311939 -.00000129  00000+0  00000+0 0  9993
2 32729   0.0366 350.7460 0000270   6.1560 250.1387  1.00272304 40876
GALAXY 18 (G-18)        
1 32951U 08024A   25062.51823616  .00000022  00000+0  00000+0 0  9993
2 32951   0.0157 228.0034 0003005 123.4578 233.6155  1.00272260 41136
INTELSAT 25 (IS-25)     
1 33153U 08034A   25062.39350780 -.00000227  00000+0  00000+0 0  9990
2 33153   1.4900  86.2094 0003051 258.7890 286.5639  1.00271356 60974
GALAXY 19 (G-19)        
1 33376U 08045A   25062.51573613 -.00000142  00000+0  00000+0 0  9991
2 33376   0.0512 274.0354 0002783  69.0550 267.0847  1.00270565 60187
FM-5                    
1 35493U 09034A   25062.52553411 -.00000203  00000+0  00000+0 0  9995
2 35493   0.0412 287.0189 0003036 263.2276  74.3269  1.00269960 41928
INTELSAT 14 (IS-14)     
1 36097U 09064A   25062.52822694 -.00000277  00000+0  00000+0 0  9992
2 36097   0.0209 111.8061 0002446 236.9218 317.9559  1.00271830 55880
INTELSAT 15 (IS-15)     
1 36106U 09067A   25062.55950433 -.00000189  00000+0  00000+0 0  9994
2 36106   0.0185 105.4885 0002300 240.9500 101.6840  1.00271340 36500
DIRECTV 12              
1 36131U 09075A   25062.51060595 -.00000107  00000+0  00000+0 0  9998
2 36131   0.0039  56.1172 0000446 332.1708 214.3289  1.00271490 41837
INTELSAT 16 (IS-16)     
1 36397U 10006A   25062.52753236 -.00000247  00000+0  00000+0 0  9995
2 36397   0.0186 134.0901 0001896 203.3928 297.7718  1.00266775 54930
XM-5                    
1 37185U 10053A   25062.54733421 -.00000026  00000+0  00000+0 0  9994
2 37185   0.0259 258.6716 0001428 287.5337  57.1796  1.00269263 52761
INTELSAT 17 (IS-17)     
1 37238U 10065B   25062.60708381 -.00000005  00000+0  00000+0 0  9997
2 37238   0.0142 196.2869 0002710 164.8832  84.9834  1.00272191 48523
INTELSAT 28 (IS-28)     
1 37392U 11016A   25062.41919575 -.00000109  00000+0  00000+0 0  9998
2 37392   0.5855  89.0598 0004066 249.2673 323.6218  1.00146284 48561
INTELSAT 18 (IS-18)     
1 37834U 11056A   25062.58868872  .00000049  00000+0  00000+0 0  9996
2 37834   0.0164 110.0663 0001936 255.3149 188.1233  1.00271902 49127
INTELSAT 22 (IS-22)     
1 38098U 12011A   25062.13308753 -.00000062  00000+0  00000+0 0  9995
2 38098   0.0278 106.5410 0001800 247.0784 287.5091  1.00272258  2466
INTELSAT 19 (IS-19)     
1 38356U 12030A   25062.62378716 -.00000060  00000+0  00000+0 0  9991
2 38356   0.0193 150.4036 0003001 196.3774 205.4238  1.00269810 45729
INTELSAT 20 (IS-20)     
1 38740U 12043A   25062.55620288 -.00000028  00000+0  00000+0 0  9992
2 38740   0.0220 133.3420 0002533  47.9155 249.0197  1.00272729 46022
INTELSAT 21 (IS-21)     
1 38749U 12045A   25062.53109446 -.00000288  00000+0  00000+0 0  9997
2 38749   0.0157 121.5966 0002108 231.9646 301.1597  1.00270843 45806
INTELSAT 23 (IS-23)     
1 38867U 12057A   25062.44141931 -.00000288  00000+0  00000+0 0  9996
2 38867   0.0432 233.1182 0001422 160.9480 233.2994  1.00265138 45232
FM-6                    
1 39360U 13058A   25062.49802789 -.00000020  00000+0  00000+0 0  9991
2 39360   0.0222 239.2213 0000255 348.7655 356.6438  1.00270530 41346
INTELSAT 30 (IS-30)     
1 40271U 14062A   25062.52379650 -.00000154  00000+0  00000+0 0  9998
2 40271   0.0372  78.2750 0001043 331.8451 204.9026  1.00271605  2063
DIRECTV 14              
1 40333U 14078B   25062.51311962 -.00000129  00000+0  00000+0 0  9997
2 40333   0.0151 323.2086 0000289 230.2638  53.5211  1.00273316 37335
DIRECTV 15              
1 40663U 15026A   25062.51060595 -.00000106  00000+0  00000+0 0  9995
2 40663   0.0249 102.7282 0000121 108.0116  31.7252  1.00272137 35741
SKY MEXICO-1            
1 40664U 15026B   25062.52701108 -.00000238  00000+0  00000+0 0  9995
2 40664   0.0062 310.3691 0002410  47.5088 274.6282  1.00271434 35733
INTELSAT 34 (IS-34)     
1 40874U 15039A   25062.53377911 -.00000289  00000+0  00000+0 0  9990
2 40874   0.0190 153.0261 0000662  85.1831  60.0039  1.00267582 34908
INTELSAT 31 (IS-31)     
1 41581U 16035A   25062.09516064 -.00000153  00000+0  00000+0 0  9998
2 41581   0.0091 148.9532 0002332  70.3448 240.9976  1.00271844 31951
INTELSAT 36 (IS-36)     
1 41747U 16053A   25062.61086363 -.00000028  00000+0  00000+0 0  9995
2 41747   0.0147 119.2212 0001278 190.5655 140.2379  1.00269705 31228
INTELSAT 32E (IS-32E)   
1 41945U 17007B   25062.52781028 -.00000272  00000+0  00000+0 0  9996
2 41945   0.0153 123.2781 0000611 239.9136 305.1731  1.00269858 29504
INTELSAT 35E (IS-35E)   
1 42818U 17041A   25062.39289963 -.00000241  00000+0  00000+0 0  9996
2 42818   0.0121 205.3532 0002687 138.0285 284.9534  1.00272087 28090
INTELSAT 37E (IS-37E)   
1 42950U 17059A   25062.41919575 -.00000144  00000+0  00000+0 0  9996
2 42950   0.0177 188.8473 0002105 145.0853 320.3852  1.00270317 27340
AZERSPACE 2 (IS-38)     
1 43632U 18074A   25062.55159822  .00000133  00000+0  00000+0 0  9995
2 43632   0.0188 153.5202 0001553 184.3293  67.3984  1.00270574 23726
HORIZONS-3E             
1 43633U 18074B   25062.57686659 -.00000035  00000+0  00000+0 0  9993
2 43633   0.0493 310.3665 0001112 342.8704 244.9851  1.00271440 23607
AT&T T-16               
1 44333U 19034A   25062.62004954 -.00000118  00000+0  00000+0 0  9998
2 44333   0.0141 110.8018 0001001  52.8442 120.3294  1.00268908 20918
INTELSAT 39 (IS-39)     
1 44476U 19049B   25062.41210020  .00000030  00000+0  00000+0 0  9994
2 44476   0.0225 141.5402 0000653  26.9408 203.2416  1.00269518 20402
GALAXY 30 (G-30)        
1 46114U 20056C   25062.48988786  .00000034  00000+0  00000+0 0  9997
2 46114   0.0204 136.4852 0001829 212.3133 224.0378  1.00271312 16570
GALAXY 33 (G-33)        
1 54026U 22128A   25062.48195203  .00000076  00000+0  00000+0 0  9990
2 54026   0.0244 255.1280 0001873  73.7113 233.1355  1.00274066  9022
GALAXY 34 (G-34)        
1 54027U 22128B   25062.48589039  .00000055  00000+0  00000+0 0  9992
2 54027   0.0180 162.4830 0001308 189.0228 215.9903  1.00270778  9195
GALAXY 31 (G-31)        
1 54243U 22153A   25062.49410686  .00000010  00000+0  00000+0 0  9993
2 54243   0.0197 217.0035 0001304 124.2203 237.1464  1.00272051  2419
GALAXY 32 (G-32)        
1 54244U 22153B   25057.31850159 -.00000174  00000+0  00000+0 0  9994
2 54244   0.0088 104.7719 0002895 247.1517 188.1295  1.00272584  8378
GALAXY 35 (G-35)        
1 54741U 22170A   25062.52414402 -.00000165  00000+0  00000+0 0  9991
2 54741   0.0183 219.2691 0001993 118.9608 278.8800  1.00270915  8174
GALAXY 36 (G-36)        
1 54742U 22170B   25062.52492595 -.00000189  00000+0  00000+0 0  9997
2 54742   0.0077 153.8455 0002271 255.2100 212.4405  1.00271110  8195
GALAXY 37 (G-37)        
1 57493U 23112A   25062.53927123  .00000045  00000+0  00000+0 0  9991
2 57493   0.0203 120.2046 0002092 222.0834 246.4030  1.00271186  5802
